KUIPER-00074            
1 64821U 25151F   25304.85635959 -.00022174  00000+0 -28805-2 0  9991
2 64821  51.9002 140.2831 0012709 196.9418 163.1121 14.79992885 16369
KUIPER-00075            
1 64822U 25151G   25304.78559541  .00080358  00000+0  19926-2 0  9996
2 64822  51.8749 127.7784 0005747 165.6609 194.4543 15.39656814 16533
KUIPER-00076            
1 64823U 25151H   25304.85367943 -.00011455  00000+0 -14757-2 0  9999
2 64823  51.8983 142.7933 0004187 188.1921 171.8974 14.79935970 16332
KUIPER-00077            
1 64824U 25151J   25304.84837063  .00004179  00000+0  57705-3 0  9998
2 64824  51.9011 147.8180 0006561 145.5403 214.5986 14.79921576 16263
KUIPER-00078            
1 64825U 25151K   25304.74972325  .00004488  00000+0  61807-3 0  9990
2 64825  51.8983 145.7530 0007187 209.5766 150.4790 14.79882736 16282
KUIPER-00079            
1 64826U 25151L   25304.74872727  .00001079  00000+0  17062-3 0  9993
2 64826  51.8982 150.4482 0012286 168.0711 192.0544 14.79950178 17417
KUIPER-00080            
1 64827U 25151M   25304.74426851  .00004545  00000+0  62502-3 0  9997
2 64827  51.8989 150.7694 0005448 184.3178 175.7738 14.79915894 16219
KUIPER-00082            
1 64828U 25151N   25304.83336806 -.00003236  00000+0 -39529-3 0  9999
2 64828  51.8998 137.8844 0004586 202.5433  20.6634 14.79956566  3739
KUIPER-00083            
1 64829U 25151P   25304.85090675 -.00002964  00000+0 -35934-3 0  9996
2 64829  51.8996 145.3058 0010766 174.7566 185.3511 14.79914184 17483
KUIPER-00084            
1 64830U 25151Q   25304.84017270  .00004457  00000+0  61275-3 0  9991
2 64830  51.8988 155.3397 0012120 146.6408 213.5320 14.79946893 16159
KUIPER-00085            
1 64831U 25151R   25304.83336806 -.00009515  00000+0 -12316-2 0  9993
2 64831  51.9015 137.8917 0007664 176.0379 228.6531 14.79539698  3064
KUIPER-00086            
1 64832U 25151S   25304.74710681  .00004186  00000+0  57770-3 0  9992
2 64832  51.9007 148.2661 0011348 167.8009 192.3230 14.79921415 16249
KUIPER-00087            
1 64833U 25151T   25304.83336806  .00003391  00000+0  26653-3 0  9999
2 64833  51.8885 131.8498 0003391 181.9228 141.8220 15.03380493  3380
KUIPER-00089            
1 64834U 25151U   25304.83336806 -.00000272  00000+0 -35267-5 0  9990
2 64834  51.8973 135.5392 0002041 202.8110 103.0163 14.88342414  4051
KUIPER-00090            
1 64835U 25151V   25304.83336806  .00005806  00000+0  34562-3 0  9992
2 64835  51.8908 130.9113 0004392 233.2495 122.1409 15.12556126  5708
KUIPER-00091            
1 64836U 25151W   25304.83336806 -.00033004  00000+0 -28620-2 0  9993
2 64836  51.8910 133.4787 0008601 214.8345 262.6578 14.96513331  3081
KUIPER-00092            
1 64837U 25151X   25304.75278999  .00003455  00000+0  47515-3 0  9993
2 64837  51.9019 140.7175 0006649 169.3392 190.7713 14.80545530 17560
KUIPER-00093            
1 64838U 25151Y   25304.75224037  .00003407  00000+0  47510-3 0  9990
2 64838  51.8980 143.2389 0014070 179.6255 180.4720 14.79960105 16314
KUIPER-00094            
1 64839U 25151Z   25304.83336806  .00005900  00000+0  44504-3 0  9998
2 64839  51.8882 134.8332 0005991 195.4882 346.5187 15.03697988  4586
KUIPER-00081            
1 65132U 25171A   25304.48175300  .00050852  00000+0  13273-2 0  9992
2 65132  51.8759  13.5625 0005494  43.6692 316.4729 15.38294818 13700
KUIPER-00088            
1 65133U 25171B   25304.83336806 -.00192657  00000+0 -15827-1 0  9990
2 65133  51.9004  16.3962 0007497  50.3317  30.8548 14.99724770  4521
KUIPER-00095            
1 65134U 25171C   25304.70906441  .00060842  00000+0  16095-2 0  9992
2 65134  51.8754  12.8236 0007149  41.7508 318.4023 15.37792416 13739
KUIPER-00096            
1 65135U 25171D   25304.83336806 -.00860447  00000+0 -38236-1 0  9990
2 65135  51.8805  12.8273 0008475  75.2665 316.7894 15.23799514  5208
KUIPER-00097            
1 65136U 25171E   25304.83336806 -.00675100  00000+0 -38020-1 0  9992
2 65136  51.8903  14.1746 0006363  64.7156 334.9555 15.15090005  5475
KUIPER-00098            
1 65137U 25171F   25304.83336806 -.01453788  00000+0 -10135+0 0  9995
2 65137  51.8862  14.9284 0007580  64.8839  18.4360 15.08230418  2983
KUIPER-00099            
1 65138U 25171G   25304.83336806 -.00329411  00000+0 -10984-1 0  9994
2 65138  51.8779  12.0863 0007612  59.9628 356.8753 15.31894952  4263
KUIPER-00100            
1 65139U 25171H   25304.81957723 -.00075496  00000+0 -20325-2 0  9992
2 65139  51.8764  12.0707 0006820  49.4916 310.6664 15.37438834 13740
KUIPER-00102            
1 65140U 25171J   25304.83336806 -.00874083  00000+0 -28787-1 0  9997
2 65140  51.8787  12.2854 0007552  56.1270 240.0034 15.33550034  5261
KUIPER-00103            
1 65141U 25171K   25304.83336806 -.00274901  00000+0 -34855-1 0  9994
2 65141  51.9022  20.4109 0007224  70.5531 181.8956 14.82970006  3626
KUIPER-00104            
1 65142U 25171L   25304.83336806 -.01243971  00000+0 -59191-1 0  9999
2 65142  51.8836  13.1381 0005762  77.7998 208.4829 15.21663072  5578
KUIPER-00105            
1 65143U 25171M   25304.83336806 -.01794229  00000+0 -15474+0 0  9991
2 65143  51.8903  16.5426 0010375  37.9677 231.4591 15.00468320  5904
KUIPER-00106            
1 65144U 25171N   25304.50515135  .00012135  00000+0  10964-2 0  9998
2 65144  51.8958  21.5185 0009310  30.4369 329.7139 14.95785453 13591
KUIPER-00107            
1 65145U 25171P   25304.62590666  .00044777  00000+0  11762-2 0  9998
2 65145  51.8752  13.0326 0005520  52.5115 307.6373 15.38156161 13726
KUIPER-00108            
1 65146U 25171Q   25304.83336806 -.00846094  00000+0 -46458-1 0  9999
2 65146  51.8919  13.9372 0006557  53.0624 158.6475 15.16128253  5325
KUIPER-00109            
1 65147U 25171R   25304.83336806 -.00970531  00000+0 -36640-1 0  9996
2 65147  51.8804  12.3825 0011638  47.4309 228.5929 15.28991187  5797
KUIPER-00110            
1 65148U 25171S   25304.83336806 -.00036478  00000+0 -36273-2 0  9993
2 65148  51.8959  18.3910 0010458  43.8401  10.8452 14.91170849  3134
KUIPER-00111            
1 65149U 25171T   25304.83336806 -.00023846  00000+0 -30925-2 0  9997
2 65149  51.8987  22.8830 0009655  57.0952  44.5154 14.80130331  5069
KUIPER-00112            
1 65150U 25171U   25304.83336806 -.00980639  00000+0 -36463-1 0  9993
2 65150  51.8805  12.5642 0007871  86.3327  78.5950 15.29563273  5437
KUIPER-00114            
1 65151U 25171V   25304.60895418  .00002046  00000+0  29736-3 0  9990
2 65151  51.9024  26.3992 0005626  50.2092 309.9365 14.79945684 13522
KUIPER-00115            
1 65152U 25171W   25304.83336806 -.00067166  00000+0 -67610-2 0  9995
2 65152  51.8964  18.2403 0010951  62.5964 185.9168 14.90978605  5192
KUIPER-00116            
1 65153U 25171X   25304.83482429 -.00127143  00000+0 -15454-1 0  9999
2 65153  51.8992  22.8137 0009516  27.1341 333.0119 14.83769773 13591
KUIPER-00118            
1 65154U 25171Y   25304.64275389  .00004733  00000+0  64948-3 0  9995
2 65154  51.9010  26.2271 0001868  77.2981 282.8190 14.79928802 13538
KUIPER-00119            
1 65155U 25171Z   25304.83336806 -.00506047  00000+0 -35551-1 0  9992
2 65155  51.8965  15.1342 0007414  34.8829 228.8585 15.06853362  4960
KUIPER-00120            
1 65762U 25217A   25304.64095147  .00028698  00000+0  10976-2 0  9990
2 65762  51.8715 269.0292 0010149 235.6670 124.3352 15.26318089  5557
KUIPER-00132            
1 65763U 25217B   25304.62873781  .00049870  00000+0  13970-2 0  9999
2 65763  51.8644 268.2402 0005874 230.4792 129.5675 15.36111461  5562
KUIPER-00133            
1 65764U 25217C   25304.83336806 -.01040090  00000+0 -43429-1 0  9994
2 65764  51.8717 268.0303 0007765 245.3067 165.6604 15.25947425  5291
KUIPER-00139            
1 65765U 25217D   25304.83336806 -.00523799  00000+0 -17284-1 0  9996
2 65765  51.8682 267.3575 0005579 233.5061 135.2441 15.33062891  4307
KUIPER-00142            
1 65766U 25217E   25304.86658682  .00054578  00000+0  14820-2 0  9995
2 65766  51.8695 266.8553 0002874 157.3845 202.7268 15.37052279  5604
KUIPER-00145            
1 65767U 25217F   25304.41602649  .00065663  00000+0  17943-2 0  9995
2 65767  51.8712 269.0860 0003042 196.6457 163.4430 15.36773766  5530
KUIPER-00147            
1 65768U 25217G   25304.63200007  .00029957  00000+0  85596-3 0  9998
2 65768  51.8655 268.2645 0005943 221.9683 138.0848 15.35733681  5569
KUIPER-00148            
1 65769U 25217H   25304.45385301  .00042215  00000+0  12252-2 0  9990
2 65769  51.8600 269.3029 0008160 241.1711 118.8456 15.35063783  5535
KUIPER-00150            
1 65770U 25217J   25304.83336806 -.00577173  00000+0 -22036-1 0  9998
2 65770  51.8616 267.6713 0009474 244.0500 309.2838 15.28205087  5146
KUIPER-00151            
1 65771U 25217K   25304.61527007  .00080699  00000+0  22048-2 0  9994
2 65771  51.8701 268.1664 0004450 200.6156 159.4651 15.36678178  5565
KUIPER-00152            
1 65772U 25217L   25304.32940010  .00068539  00000+0  18158-2 0  9992
2 65772  51.8717 269.2570 0002736 103.8988 256.2304 15.37712567  5522
KUIPER-00153            
1 65773U 25217M   25304.83336806 -.00485278  00000+0 -19155-1 0  9993
2 65773  51.8664 267.6880 0007751 241.1858 332.9165 15.27117401  5234
KUIPER-00155            
1 65774U 25217N   25304.68945441  .00064194  00000+0  17926-2 0  9991
2 65774  51.8696 267.9045 0004793 219.7103 140.3532 15.36102559  5577
KUIPER-00156            
1 65775U 25217P   25304.59556845  .00045187  00000+0  12113-2 0  9992
2 65775  51.8713 268.0430 0002587 137.9825 222.1361 15.37535195  5564
KUIPER-00158            
1 65776U 25217Q   25304.55313539  .00058319  00000+0  16096-2 0  9995
2 65776  51.8706 268.4995 0003108 214.8617 145.2166 15.36515838  5559
KUIPER-00163            
1 65777U 25217R   25304.83336806 -.00903923  00000+0 -30541-1 0  9991
2 65777  51.8639 267.3699 0007181 231.0295 116.2244 15.32839397  1301
